SPACEMOBILE-003         
1 61045U 24163A   26188.58983398  .00000822  00000+0  51476-4 0  9998
2 61045  52.9711 215.6104 0005934 173.0520 187.0558 15.20789546100878
SPACEMOBILE-005         
1 61046U 24163B   26189.36190256  .00002885  00000+0  14390-3 0  9993
2 61046  52.9802 212.0048 0008903 170.8049 189.3110 15.20763837100984
SPACEMOBILE-001         
1 61047U 24163C   26189.49183679  .00000562  00000+0  39835-4 0  9991
2 61047  52.9747 211.1260 0007521 173.6655 186.4436 15.20812105101004
SPACEMOBILE-002         
1 61048U 24163D   26189.47585076  .00004194  00000+0  20198-3 0  9993
2 61048  52.9765 211.2391 0006729 173.3276 186.7809 15.20856992101005
SPACEMOBILE-004         
1 61049U 24163E   26187.48682539  .00011231  00000+0  51661-3 0  9994
2 61049  52.9667 220.1743 0007073 196.8401 163.2360 15.20801145100708
SPACEMOBILE-001 DEB     
1 62369U 24163F   26189.40925552  .00004768  00000+0  14798-3 0  9996
2 62369  52.9919 179.4152 0005942 226.9648 133.0856 15.35299245 89760
SPACEMOBILE-002 DEB     
1 62370U 24163G   26189.42321220  .00014113  00000+0  31715-3 0  9995
2 62370  52.9406 163.9171 0004473 260.5662  99.4836 15.43630312101648
SPACEMOBILE-003 DEB     
1 62371U 24163H   26189.44719108  .00013253  00000+0  32152-3 0  9994
2 62371  52.9682 170.5755 0005681 211.8391 148.2269 15.41380023 95168
SPACEMOBILE-004 DEB     
1 62372U 24163J   26189.46236056  .00009632  00000+0  24235-3 0  9992
2 62372  52.9831 170.1093 0002831 235.4069 124.6667 15.40630794 98237
SPACEMOBILE-008         
1 69589U 26139A   26189.41414475  .00000553  00000+0  48131-4 0  9997
2 69589  52.9938 166.1941 0004704  40.1803 319.9535 15.12795607  3195
SPACEMOBILE-009         
1 69590U 26139B   26189.34955796  .00000530  00000+0  46945-4 0  9993
2 69590  52.9928 166.4987 0004937  35.3944 324.7374 15.12688799  3186
SPACEMOBILE-010         
1 69591U 26139C   26189.41798456  .00000482  00000+0  44398-4 0  9996
2 69591  52.9933 166.2159 0004820  26.6938 333.4300 15.12519992  3206
